ONEWEB-0275             
1 48993U 21060AC  25239.12118602  .00000148  00000+0  35470-3 0  9998
2 48993  87.9007 287.3933 0001978  91.0196 269.1161 13.16593391200865
ONEWEB-0276             
1 48994U 21060AD  25239.07844961  .00000057  00000+0  11520-3 0  9996
2 48994  87.9009 287.3989 0001780  95.9584 264.1750 13.16594209200873
ONEWEB-0277             
1 48995U 21060AE  25239.09110559  .00000039  00000+0  69514-4 0  9995
2 48995  87.9005 287.4301 0001796  83.6694 276.4641 13.16594157200868
ONEWEB-0278             
1 48996U 21060AF  25238.85362286 -.00000111  00000+0 -32348-3 0  9992
2 48996  87.9007 287.4403 0001898 101.5473 258.5871 13.16595069200962
ONEWEB-0279             
1 48997U 21060AG  25239.08952853  .00000004  00000+0 -23025-4 0  9997
2 48997  87.9006 287.3886 0001944  84.9296 275.2057 13.16595095200922
ONEWEB-0280             
1 48998U 21060AH  25238.87656244 -.00000239  00000+0 -65978-3 0  9992
2 48998  87.9010 287.4393 0001561  95.2229 264.9080 13.16593780200838
ONEWEB-0281             
1 48999U 21060AJ  25239.11010601  .00000044  00000+0  82686-4 0  9990
2 48999  87.9006 287.3895 0002084  93.4330 266.7039 13.16592595200932
ONEWEB-0282             
1 49000U 21060AK  25239.06419511  .00000070  00000+0  14886-3 0  9996
2 49000  87.9006 287.4084 0001768  91.8060 268.3273 13.16593643200907
